{
  "type": "FeatureCollection",
  "name": "SAL-SHIELD SBVI Risk Zones",
  "crs": {
    "type": "name",
    "properties": {
      "name": "urn:ogc:def:crs:OGC:1.3:CRS84"
    }
  },
  "generated_by": "SAL-SHIELD ML Pipeline \u00b7 UPES Dehradun",
  "model": "SBVI-RF-v1",
  "features": [
    {
      "type": "Feature",
      "properties": {
        "id": "sbvi-zone-1",
        "name": "Very Low Risk Zone",
        "risk": "low",
        "risk_label": "Very Low",
        "sbvi_mean": 0.363,
        "sbvi_scaled": 36.3,
        "pixel_count": 87,
        "area_ha": 0.9,
        "color": "#52C778",
        "data_source": "Sentinel-2 SBVI Model \u00b7 Chandreyee Dey Roy",
        "formula": "(NDVI_stress\u00d70.35) + (NDMI_stress\u00d70.35) + (NBR_stress\u00d70.20) + (SAR_stress\u00d70.10)"
      },
      "geometry": {
        "type": "MultiPolygon",
        "coordinates": [
          [
            [
              [
                77.99397875509432,
                30.27178777054937
              ],
              [
                77.99406858662276,
                30.27178777054937
              ],
              [
                77.99406858662276,
                30.27187760207756
              ],
              [
                77.9941584181512,
                30.27187760207756
              ],
              [
                77.9941584181512,
                30.271697939021184
              ],
              [
                77.99397875509432,
                30.271697939021184
              ],
              [
                77.99397875509432,
                30.27178777054937
              ]
            ]
          ],
          [
            [
              [
                78.00565685379192,
                30.29756941913896
              ],
              [
                78.00565685379192,
                30.297479587610773
              ],
              [
                78.00556702226348,
                30.297479587610773
              ],
              [
                78.00556702226348,
                30.29756941913896
              ],
              [
                78.00565685379192,
                30.29756941913896
              ]
            ]
          ],
          [
            [
              [
                78.00592634837724,
                30.297838913723517
              ],
              [
                78.00592634837724,
                30.29774908219533
              ],
              [
                78.0058365168488,
                30.29774908219533
              ],
              [
                78.0058365168488,
                30.297838913723517
              ],
              [
                78.00592634837724,
                30.297838913723517
              ]
            ]
          ],
          [
            [
              [
                78.00260258182485,
                30.30188133249192
              ],
              [
                78.00278224488174,
                30.30188133249192
              ],
              [
                78.00278224488174,
                30.301791500963734
              ],
              [
                78.00260258182485,
                30.301791500963734
              ],
              [
                78.00260258182485,
                30.30188133249192
              ]
            ]
          ],
          [
            [
              [
                78.00242291876796,
                30.303947457640216
              ],
              [
                78.00242291876796,
                30.303857626112027
              ],
              [
                78.00233308723952,
                30.303857626112027
              ],
              [
                78.00233308723952,
                30.303947457640216
              ],
              [
                78.00242291876796,
                30.303947457640216
              ]
            ]
          ],
          [
            [
              [
                78.0072738213039,
                30.307810213352244
              ],
              [
                78.0072738213039,
                30.30763055029587
              ],
              [
                78.00718398977546,
                30.30763055029587
              ],
              [
                78.00718398977546,
                30.307810213352244
              ],
              [
                78.0072738213039,
                30.307810213352244
              ]
            ]
          ],
          [
            [
              [
                78.0124840499536,
                30.324788372179533
              ],
              [
                78.01257388148204,
                30.324788372179533
              ],
              [
                78.01257388148204,
                30.324698540651347
              ],
              [
                78.0124840499536,
                30.324698540651347
              ],
              [
                78.0124840499536,
                30.324788372179533
              ]
            ]
          ],
          [
            [
              [
                77.8806113661991,
                30.32954944317343
              ],
              [
                77.8806113661991,
                30.32945961164524
              ],
              [
                77.88052153467066,
                30.32945961164524
              ],
              [
                77.88052153467066,
                30.32954944317343
              ],
              [
                77.8806113661991,
                30.32954944317343
              ]
            ]
          ],
          [
            [
              [
                77.89076232891317,
                30.349851368543625
              ],
              [
                77.89076232891317,
                30.350120863128186
              ],
              [
                77.89103182349851,
                30.350120863128186
              ],
              [
                77.89103182349851,
                30.3500310316
              ],
              [
                77.89112165502695,
                30.3500310316
              ],
              [
                77.89112165502695,
                30.349851368543625
              ],
              [
                77.89076232891317,
                30.349851368543625
              ]
            ]
          ],
          [
            [
              [
                77.85635685351946,
                30.37275840823124
              ],
              [
                77.85635685351946,
                30.372668576703052
              ],
              [
                77.85626702199102,
                30.372668576703052
              ],
              [
                77.85626702199102,
                30.37275840823124
              ],
              [
                77.85635685351946,
                30.37275840823124
              ]
            ]
          ],
          [
            [
              [
                77.86111792452695,
                30.373477060456732
              ],
              [
                77.86111792452695,
                30.373387228928546
              ],
              [
                77.86084842994161,
                30.373387228928546
              ],
              [
                77.86084842994161,
                30.373656723513104
              ],
              [
                77.86093826147005,
                30.373656723513104
              ],
              [
                77.86093826147005,
                30.373746555041294
              ],
              [
                77.86111792452695,
                30.373746555041294
              ],
              [
                77.86111792452695,
                30.373566891984918
              ],
              [
                77.86102809299851,
                30.373566891984918
              ],
              [
                77.86102809299851,
                30.373477060456732
              ],
              [
                77.86111792452695,
                30.373477060456732
              ]
            ]
          ],
          [
            [
              [
                77.88752839388923,
                30.389826398586713
              ],
              [
                77.88752839388923,
                30.389736567058527
              ],
              [
                77.88743856236078,
                30.389736567058527
              ],
              [
                77.88743856236078,
                30.389826398586713
              ],
              [
                77.88752839388923,
                30.389826398586713
              ]
            ]
          ],
          [
            [
              [
                77.88734873083233,
                30.389826398586713
              ],
              [
                77.88734873083233,
                30.3899162301149
              ],
              [
                77.88743856236078,
                30.3899162301149
              ],
              [
                77.88743856236078,
                30.389826398586713
              ],
              [
                77.88734873083233,
                30.389826398586713
              ]
            ]
          ],
          [
            [
              [
                78.10231557839671,
                30.239717914986713
              ],
              [
                78.10240540992515,
                30.239717914986713
              ],
              [
                78.10240540992515,
                30.239628083458527
              ],
              [
                78.10231557839671,
                30.239628083458527
              ],
              [
                78.10231557839671,
                30.239717914986713
              ]
            ]
          ],
          [
            [
              [
                78.02721642061826,
                30.299725375815438
              ],
              [
                78.02721642061826,
                30.299545712759066
              ],
              [
                78.02712658908982,
                30.299545712759066
              ],
              [
                78.02712658908982,
                30.299635544287252
              ],
              [
                78.02703675756138,
                30.299635544287252
              ],
              [
                78.02703675756138,
                30.299815207343627
              ],
              [
                78.02712658908982,
                30.299815207343627
              ],
              [
                78.02712658908982,
                30.299905038871813
              ],
              [
                78.02721642061826,
                30.299905038871813
              ],
              [
                78.02721642061826,
                30.299815207343627
              ],
              [
                78.02730625214672,
                30.299815207343627
              ],
              [
                78.02730625214672,
                30.299725375815438
              ],
              [
                78.02721642061826,
                30.299725375815438
              ]
            ]
          ],
          [
            [
              [
                78.04868615591617,
                30.316254377001794
              ],
              [
                78.04868615591617,
                30.316164545473608
              ],
              [
                78.04859632438773,
                30.316164545473608
              ],
              [
                78.04859632438773,
                30.316254377001794
              ],
              [
                78.04868615591617,
                30.316254377001794
              ]
            ]
          ],
          [
            [
              [
                78.02685709450449,
                30.316883197699102
              ],
              [
                78.02694692603293,
                30.316883197699102
              ],
              [
                78.02694692603293,
                30.316793366170916
              ],
              [
                78.02685709450449,
                30.316793366170916
              ],
              [
                78.02685709450449,
                30.316883197699102
              ]
            ]
          ],
          [
            [
              [
                78.04176912822605,
                30.320656121882944
              ],
              [
                78.04176912822605,
                30.32056629035476
              ],
              [
                78.04167929669761,
                30.32056629035476
              ],
              [
                78.04167929669761,
                30.320656121882944
              ],
              [
                78.04176912822605,
                30.320656121882944
              ]
            ]
          ],
          [
            [
              [
                78.0203892244566,
                30.336646133900178
              ],
              [
                78.0203892244566,
                30.336556302371992
              ],
              [
                78.02029939292815,
                30.336556302371992
              ],
              [
                78.02029939292815,
                30.336646133900178
              ],
              [
                78.0203892244566,
                30.336646133900178
              ]
            ]
          ],
          [
            [
              [
                78.03000119800001,
                30.338442764463913
              ],
              [
                78.03009102952845,
                30.338442764463913
              ],
              [
                78.03009102952845,
                30.338352932935727
              ],
              [
                78.03000119800001,
                30.338352932935727
              ],
              [
                78.03000119800001,
                30.338442764463913
              ]
            ]
          ],
          [
            [
              [
                78.04805733521707,
                30.343383498514182
              ],
              [
                78.04805733521707,
                30.343473330042368
              ],
              [
                78.04796750368862,
                30.343473330042368
              ],
              [
                78.04796750368862,
                30.343563161570557
              ],
              [
                78.04832682980239,
                30.343563161570557
              ],
              [
                78.04832682980239,
                30.343473330042368
              ],
              [
                78.04814716674551,
                30.343473330042368
              ],
              [
                78.04814716674551,
                30.343383498514182
              ],
              [
                78.04805733521707,
                30.343383498514182
              ]
            ]
          ],
          [
            [
              [
                78.0856069141063,
                30.358115869136803
              ],
              [
                78.0856069141063,
                30.35820570066499
              ],
              [
                78.08578657716318,
                30.35820570066499
              ],
              [
                78.08578657716318,
                30.358026037608617
              ],
              [
                78.08569674563473,
                30.358026037608617
              ],
              [
                78.08569674563473,
                30.358115869136803
              ],
              [
                78.0856069141063,
                30.358115869136803
              ]
            ]
          ],
          [
            [
              [
                78.08686455550449,
                30.36431424458169
              ],
              [
                78.08686455550449,
                30.36449390763806
              ],
              [
                78.08713405008983,
                30.36449390763806
              ],
              [
                78.08713405008983,
                30.364404076109874
              ],
              [
                78.08704421856137,
                30.364404076109874
              ],
              [
                78.08704421856137,
                30.36431424458169
              ],
              [
                78.08686455550449,
                30.36431424458169
              ]
            ]
          ],
          [
            [
              [
                78.08668489244761,
                30.365032896807183
              ],
              [
                78.08668489244761,
                30.364943065278993
              ],
              [
                78.08677472397605,
                30.364943065278993
              ],
              [
                78.08677472397605,
                30.364853233750807
              ],
              [
                78.08659506091917,
                30.364853233750807
              ],
              [
                78.08659506091917,
                30.364943065278993
              ],
              [
                78.08650522939072,
                30.364943065278993
              ],
              [
                78.08650522939072,
                30.365212559863554
              ],
              [
                78.08668489244761,
                30.365212559863554
              ],
              [
                78.08668489244761,
                30.36512272833537
              ],
              [
                78.08677472397605,
                30.36512272833537
              ],
              [
                78.08677472397605,
                30.365032896807183
              ],
              [
                78.08668489244761,
                30.365032896807183
              ]
            ]
          ],
          [
            [
              [
                78.07006605968563,
                30.365212559863554
              ],
              [
                78.07006605968563,
                30.36530239139174
              ],
              [
                78.06997622815719,
                30.36530239139174
              ],
              [
                78.06997622815719,
                30.365482054448115
              ],
              [
                78.07024572274251,
                30.365482054448115
              ],
              [
                78.07024572274251,
                30.36530239139174
              ],
              [
                78.07015589121407,
                30.36530239139174
              ],
              [
                78.07015589121407,
                30.365212559863554
              ],
              [
                78.07006605968563,
                30.365212559863554
              ]
            ]
          ],
          [
            [
              [
                78.07572544597755,
                30.398629888349014
              ],
              [
                78.07572544597755,
                30.398540056820824
              ],
              [
                78.0756356144491,
                30.398540056820824
              ],
              [
                78.0756356144491,
                30.39845022529264
              ],
              [
                78.07545595139221,
                30.39845022529264
              ],
              [
                78.07545595139221,
                30.398629888349014
              ],
              [
                78.07536611986377,
                30.398629888349014
              ],
              [
                78.07536611986377,
                30.398809551405385
              ],
              [
                78.07545595139221,
                30.398809551405385
              ],
              [
                78.07545595139221,
                30.3987197198772
              ],
              [
                78.0756356144491,
                30.3987197198772
              ],
              [
                78.0756356144491,
                30.398629888349014
              ],
              [
                78.07572544597755,
                30.398629888349014
              ]
            ]
          ]
        ]
      }
    },
    {
      "type": "Feature",
      "properties": {
        "id": "sbvi-zone-2",
        "name": "Low Risk Zone",
        "risk": "low",
        "risk_label": "Low",
        "sbvi_mean": 0.51,
        "sbvi_scaled": 51.0,
        "pixel_count": 59,
        "area_ha": 0.6,
        "color": "#A8D870",
        "data_source": "Sentinel-2 SBVI Model \u00b7 Chandreyee Dey Roy",
        "formula": "(NDVI_stress\u00d70.35) + (NDMI_stress\u00d70.35) + (NBR_stress\u00d70.20) + (SAR_stress\u00d70.10)"
      },
      "geometry": {
        "type": "MultiPolygon",
        "coordinates": [
          [
            [
              [
                77.99406858662276,
                30.27187760207756
              ],
              [
                77.99406858662276,
                30.27178777054937
              ],
              [
                77.99397875509432,
                30.27178777054937
              ],
              [
                77.99397875509432,
                30.27187760207756
              ],
              [
                77.99406858662276,
                30.27187760207756
              ]
            ]
          ],
          [
            [
              [
                78.01589764803444,
                30.2796929450298
              ],
              [
                78.01589764803444,
                30.279603113501615
              ],
              [
                78.01580781650598,
                30.279603113501615
              ],
              [
                78.01580781650598,
                30.2796929450298
              ],
              [
                78.01589764803444,
                30.2796929450298
              ]
            ]
          ],
          [
            [
              [
                78.00439921239372,
                30.296311777744343
              ],
              [
                78.00439921239372,
                30.296401609272532
              ],
              [
                78.00430938086527,
                30.296401609272532
              ],
              [
                78.00430938086527,
                30.296491440800718
              ],
              [
                78.0045788754506,
                30.296491440800718
              ],
              [
                78.0045788754506,
                30.296401609272532
              ],
              [
                78.00448904392216,
                30.296401609272532
              ],
              [
                78.00448904392216,
                30.296311777744343
              ],
              [
                78.00439921239372,
                30.296311777744343
              ]
            ]
          ],
          [
            [
              [
                78.00502803309281,
                30.298467734420825
              ],
              [
                78.00502803309281,
                30.29837790289264
              ],
              [
                78.00493820156437,
                30.29837790289264
              ],
              [
                78.00493820156437,
                30.298467734420825
              ],
              [
                78.00502803309281,
                30.298467734420825
              ]
            ]
          ],
          [
            [
              [
                78.02730625214672,
                30.299725375815438
              ],
              [
                78.02730625214672,
                30.299635544287252
              ],
              [
                78.02721642061826,
                30.299635544287252
              ],
              [
                78.02721642061826,
                30.299725375815438
              ],
              [
                78.02730625214672,
                30.299725375815438
              ]
            ]
          ],
          [
            [
              [
                78.02712658908982,
                30.299905038871813
              ],
              [
                78.02712658908982,
                30.299815207343627
              ],
              [
                78.02703675756138,
                30.299815207343627
              ],
              [
                78.02703675756138,
                30.299905038871813
              ],
              [
                78.02712658908982,
                30.299905038871813
              ]
            ]
          ],
          [
            [
              [
                78.00278224488174,
                30.301791500963734
              ],
              [
                78.00278224488174,
                30.30170166943555
              ],
              [
                78.0026924133533,
                30.30170166943555
              ],
              [
                78.0026924133533,
                30.301791500963734
              ],
              [
                78.00278224488174,
                30.301791500963734
              ]
            ]
          ],
          [
            [
              [
                78.0105975878563,
                30.302240658604667
              ],
              [
                78.0105975878563,
                30.302330490132853
              ],
              [
                78.01068741938474,
                30.302330490132853
              ],
              [
                78.01068741938474,
                30.302240658604667
              ],
              [
                78.0105975878563,
                30.302240658604667
              ]
            ]
          ],
          [
            [
              [
                78.01077725091318,
                30.302420321661042
              ],
              [
                78.01077725091318,
                30.302330490132853
              ],
              [
                78.01068741938474,
                30.302330490132853
              ],
              [
                78.01068741938474,
                30.302420321661042
              ],
              [
                78.01077725091318,
                30.302420321661042
              ]
            ]
          ],
          [
            [
              [
                78.00224325571108,
                30.303857626112027
              ],
              [
                78.00224325571108,
                30.304037289168402
              ],
              [
                78.00242291876796,
                30.304037289168402
              ],
              [
                78.00242291876796,
                30.303947457640216
              ],
              [
                78.00233308723952,
                30.303947457640216
              ],
              [
                78.00233308723952,
                30.303857626112027
              ],
              [
                78.00224325571108,
                30.303857626112027
              ]
            ]
          ],
          [
            [
              [
                78.02011972987125,
                30.338083438351166
              ],
              [
                78.02011972987125,
                30.337903775294794
              ],
              [
                78.02002989834281,
                30.337903775294794
              ],
              [
                78.02002989834281,
                30.338083438351166
              ],
              [
                78.02011972987125,
                30.338083438351166
              ]
            ]
          ],
          [
            [
              [
                78.03018086105689,
                30.338442764463913
              ],
              [
                78.03018086105689,
                30.338352932935727
              ],
              [
                78.03009102952845,
                30.338352932935727
              ],
              [
                78.03009102952845,
                30.338442764463913
              ],
              [
                78.03018086105689,
                30.338442764463913
              ]
            ]
          ],
          [
            [
              [
                78.03000119800001,
                30.338442764463913
              ],
              [
                78.03000119800001,
                30.338352932935727
              ],
              [
                78.02991136647155,
                30.338352932935727
              ],
              [
                78.02991136647155,
                30.338442764463913
              ],
              [
                78.03000119800001,
                30.338442764463913
              ]
            ]
          ],
          [
            [
              [
                77.89112165502695,
                30.34976153701544
              ],
              [
                77.89103182349851,
                30.34976153701544
              ],
              [
                77.89103182349851,
                30.349851368543625
              ],
              [
                77.89112165502695,
                30.349851368543625
              ],
              [
                77.89112165502695,
                30.34976153701544
              ]
            ]
          ],
          [
            [
              [
                77.89112165502695,
                30.349941200071815
              ],
              [
                77.89121148655539,
                30.349941200071815
              ],
              [
                77.89121148655539,
                30.349851368543625
              ],
              [
                77.89112165502695,
                30.349851368543625
              ],
              [
                77.89112165502695,
                30.349941200071815
              ]
            ]
          ],
          [
            [
              [
                77.85635685351946,
                30.372668576703052
              ],
              [
                77.85635685351946,
                30.372578745174867
              ],
              [
                77.85626702199102,
                30.372578745174867
              ],
              [
                77.85626702199102,
                30.372668576703052
              ],
              [
                77.85635685351946,
                30.372668576703052
              ]
            ]
          ],
          [
            [
              [
                77.86120775605539,
                30.373477060456732
              ],
              [
                77.86102809299851,
                30.373477060456732
              ],
              [
                77.86102809299851,
                30.373566891984918
              ],
              [
                77.86120775605539,
                30.373566891984918
              ],
              [
                77.86120775605539,
                30.373477060456732
              ]
            ]
          ],
          [
            [
              [
                77.86084842994161,
                30.373477060456732
              ],
              [
                77.86075859841317,
                30.373477060456732
              ],
              [
                77.86075859841317,
                30.373656723513104
              ],
              [
                77.86084842994161,
                30.373656723513104
              ],
              [
                77.86084842994161,
                30.373477060456732
              ]
            ]
          ],
          [
            [
              [
                77.887887720003,
                30.390095893171274
              ],
              [
                77.887887720003,
                30.39000606164309
              ],
              [
                77.88779788847455,
                30.39000606164309
              ],
              [
                77.88779788847455,
                30.390095893171274
              ],
              [
                77.887887720003,
                30.390095893171274
              ]
            ]
          ],
          [
            [
              [
                78.05784897181736,
                30.304037289168402
              ],
              [
                78.05784897181736,
                30.303947457640216
              ],
              [
                78.05775914028892,
                30.303947457640216
              ],
              [
                78.05775914028892,
                30.304037289168402
              ],
              [
                78.05784897181736,
                30.304037289168402
              ]
            ]
          ],
          [
            [
              [
                78.04158946516917,
                30.320656121882944
              ],
              [
                78.04158946516917,
                30.32074595341113
              ],
              [
                78.04185895975449,
                30.32074595341113
              ],
              [
                78.04185895975449,
                30.32056629035476
              ],
              [
                78.04176912822605,
                30.32056629035476
              ],
              [
                78.04176912822605,
                30.320656121882944
              ],
              [
                78.04158946516917,
                30.320656121882944
              ]
            ]
          ],
          [
            [
              [
                78.06171172754043,
                30.323081573143984
              ],
              [
                78.06171172754043,
                30.32326123620036
              ],
              [
                78.06189139059731,
                30.32326123620036
              ],
              [
                78.06189139059731,
                30.323171404672173
              ],
              [
                78.06180155906887,
                30.323171404672173
              ],
              [
                78.06180155906887,
                30.323081573143984
              ],
              [
                78.06171172754043,
                30.323081573143984
              ]
            ]
          ],
          [
            [
              [
                78.04832682980239,
                30.343473330042368
              ],
              [
                78.04832682980239,
                30.343293666985996
              ],
              [
                78.04814716674551,
                30.343293666985996
              ],
              [
                78.04814716674551,
                30.343473330042368
              ],
              [
                78.04832682980239,
                30.343473330042368
              ]
            ]
          ],
          [
            [
              [
                78.04796750368862,
                30.343652993098743
              ],
              [
                78.04796750368862,
                30.343563161570557
              ],
              [
                78.04787767216018,
                30.343563161570557
              ],
              [
                78.04787767216018,
                30.343652993098743
              ],
              [
                78.04796750368862,
                30.343652993098743
              ]
            ]
          ],
          [
            [
              [
                78.04742851451796,
                30.34401231921149
              ],
              [
                78.04742851451796,
                30.343922487683304
              ],
              [
                78.04733868298952,
                30.343922487683304
              ],
              [
                78.04733868298952,
                30.34401231921149
              ],
              [
                78.04742851451796,
                30.34401231921149
              ]
            ]
          ],
          [
            [
              [
                78.08381028353743,
                30.354432776481147
              ],
              [
                78.08372045200899,
                30.354432776481147
              ],
              [
                78.08372045200899,
                30.354522608009336
              ],
              [
                78.08381028353743,
                30.354522608009336
              ],
              [
                78.08381028353743,
                30.354432776481147
              ]
            ]
          ],
          [
            [
              [
                78.08569674563473,
                30.358026037608617
              ],
              [
                78.08551708257785,
                30.358026037608617
              ],
              [
                78.08551708257785,
                30.358115869136803
              ],
              [
                78.08569674563473,
                30.358115869136803
              ],
              [
                78.08569674563473,
                30.358026037608617
              ]
            ]
          ],
          [
            [
              [
                78.08587640869162,
                30.35820570066499
              ],
              [
                78.08587640869162,
                30.358026037608617
              ],
              [
                78.08578657716318,
                30.358026037608617
              ],
              [
                78.08578657716318,
                30.35820570066499
              ],
              [
                78.08587640869162,
                30.35820570066499
              ]
            ]
          ],
          [
            [
              [
                78.08704421856137,
                30.36431424458169
              ],
              [
                78.08704421856137,
                30.3642244130535
              ],
              [
                78.08686455550449,
                30.3642244130535
              ],
              [
                78.08686455550449,
                30.36431424458169
              ],
              [
                78.08704421856137,
                30.36431424458169
              ]
            ]
          ],
          [
            [
              [
                78.08713405008983,
                30.364404076109874
              ],
              [
                78.08713405008983,
                30.36431424458169
              ],
              [
                78.08704421856137,
                30.36431424458169
              ],
              [
                78.08704421856137,
                30.364404076109874
              ],
              [
                78.08713405008983,
                30.364404076109874
              ]
            ]
          ],
          [
            [
              [
                78.08677472397605,
                30.364583739166246
              ],
              [
                78.08704421856137,
                30.364583739166246
              ],
              [
                78.08704421856137,
                30.36449390763806
              ],
              [
                78.08686455550449,
                30.36449390763806
              ],
              [
                78.08686455550449,
                30.364404076109874
              ],
              [
                78.08677472397605,
                30.364404076109874
              ],
              [
                78.08677472397605,
                30.364583739166246
              ]
            ]
          ],
          [
            [
              [
                78.08659506091917,
                30.364853233750807
              ],
              [
                78.08650522939072,
                30.364853233750807
              ],
              [
                78.08650522939072,
                30.364943065278993
              ],
              [
                78.08659506091917,
                30.364943065278993
              ],
              [
                78.08659506091917,
                30.364853233750807
              ]
            ]
          ],
          [
            [
              [
                78.08677472397605,
                30.365032896807183
              ],
              [
                78.08677472397605,
                30.364943065278993
              ],
              [
                78.08668489244761,
                30.364943065278993
              ],
              [
                78.08668489244761,
                30.365032896807183
              ],
              [
                78.08677472397605,
                30.365032896807183
              ]
            ]
          ],
          [
            [
              [
                78.08650522939072,
                30.36512272833537
              ],
              [
                78.08650522939072,
                30.365032896807183
              ],
              [
                78.08641539786228,
                30.365032896807183
              ],
              [
                78.08641539786228,
                30.36512272833537
              ],
              [
                78.08650522939072,
                30.36512272833537
              ]
            ]
          ],
          [
            [
              [
                78.07536611986377,
                30.366021043617234
              ],
              [
                78.07536611986377,
                30.36593121208905
              ],
              [
                78.07527628833533,
                30.36593121208905
              ],
              [
                78.07527628833533,
                30.366021043617234
              ],
              [
                78.07536611986377,
                30.366021043617234
              ]
            ]
          ],
          [
            [
              [
                78.07545595139221,
                30.398540056820824
              ],
              [
                78.07536611986377,
                30.398540056820824
              ],
              [
                78.07536611986377,
                30.398629888349014
              ],
              [
                78.07545595139221,
                30.398629888349014
              ],
              [
                78.07545595139221,
                30.398540056820824
              ]
            ]
          ],
          [
            [
              [
                78.07554578292066,
                30.3987197198772
              ],
              [
                78.07545595139221,
                30.3987197198772
              ],
              [
                78.07545595139221,
                30.398809551405385
              ],
              [
                78.07554578292066,
                30.398809551405385
              ],
              [
                78.07554578292066,
                30.3987197198772
              ]
            ]
          ]
        ]
      }
    },
    {
      "type": "Feature",
      "properties": {
        "id": "sbvi-zone-3",
        "name": "Moderate Risk Zone",
        "risk": "moderate",
        "risk_label": "Moderate",
        "sbvi_mean": 0.627,
        "sbvi_scaled": 62.7,
        "pixel_count": 35,
        "area_ha": 0.4,
        "color": "#F0C040",
        "data_source": "Sentinel-2 SBVI Model \u00b7 Chandreyee Dey Roy",
        "formula": "(NDVI_stress\u00d70.35) + (NDMI_stress\u00d70.35) + (NBR_stress\u00d70.20) + (SAR_stress\u00d70.10)"
      },
      "geometry": {
        "type": "MultiPolygon",
        "coordinates": [
          [
            [
              [
                78.00556702226348,
                30.297659250667145
              ],
              [
                78.00574668532036,
                30.297659250667145
              ],
              [
                78.00574668532036,
                30.29756941913896
              ],
              [
                78.00556702226348,
                30.29756941913896
              ],
              [
                78.00556702226348,
                30.297659250667145
              ]
            ]
          ],
          [
            [
              [
                78.00592634837724,
                30.29774908219533
              ],
              [
                78.00592634837724,
                30.297659250667145
              ],
              [
                78.0058365168488,
                30.297659250667145
              ],
              [
                78.0058365168488,
                30.29774908219533
              ],
              [
                78.00592634837724,
                30.29774908219533
              ]
            ]
          ],
          [
            [
              [
                78.00511786462125,
                30.298467734420825
              ],
              [
                78.00511786462125,
                30.29837790289264
              ],
              [
                78.00502803309281,
                30.29837790289264
              ],
              [
                78.00502803309281,
                30.298467734420825
              ],
              [
                78.00511786462125,
                30.298467734420825
              ]
            ]
          ],
          [
            [
              [
                78.01392135440868,
                30.305923751260323
              ],
              [
                78.01401118593712,
                30.305923751260323
              ],
              [
                78.01401118593712,
                30.305744088203948
              ],
              [
                78.01392135440868,
                30.305744088203948
              ],
              [
                78.01392135440868,
                30.305923751260323
              ]
            ]
          ],
          [
            [
              [
                78.0235333279521,
                30.30655257195763
              ],
              [
                78.0235333279521,
                30.306462740429442
              ],
              [
                78.02344349642365,
                30.306462740429442
              ],
              [
                78.02344349642365,
                30.30655257195763
              ],
              [
                78.0235333279521,
                30.30655257195763
              ]
            ]
          ],
          [
            [
              [
                78.00754331588922,
                30.30790004488043
              ],
              [
                78.00754331588922,
                30.307810213352244
              ],
              [
                78.00745348436078,
                30.307810213352244
              ],
              [
                78.00745348436078,
                30.30790004488043
              ],
              [
                78.00754331588922,
                30.30790004488043
              ]
            ]
          ],
          [
            [
              [
                78.04158946516917,
                30.320656121882944
              ],
              [
                78.04167929669761,
                30.320656121882944
              ],
              [
                78.04167929669761,
                30.32056629035476
              ],
              [
                78.04158946516917,
                30.32056629035476
              ],
              [
                78.04158946516917,
                30.320656121882944
              ]
            ]
          ],
          [
            [
              [
                78.02029939292815,
                30.336646133900178
              ],
              [
                78.02029939292815,
                30.336556302371992
              ],
              [
                78.0202095613997,
                30.336556302371992
              ],
              [
                78.0202095613997,
                30.336646133900178
              ],
              [
                78.02029939292815,
                30.336646133900178
              ]
            ]
          ],
          [
            [
              [
                78.03009102952845,
                30.338352932935727
              ],
              [
                78.03009102952845,
                30.33826310140754
              ],
              [
                78.02982153494311,
                30.33826310140754
              ],
              [
                78.02982153494311,
                30.338352932935727
              ],
              [
                78.03009102952845,
                30.338352932935727
              ]
            ]
          ],
          [
            [
              [
                78.03009102952845,
                30.3385325959921
              ],
              [
                78.03009102952845,
                30.338442764463913
              ],
              [
                78.03000119800001,
                30.338442764463913
              ],
              [
                78.03000119800001,
                30.3385325959921
              ],
              [
                78.03009102952845,
                30.3385325959921
              ]
            ]
          ],
          [
            [
              [
                77.90917779224401,
                30.342575014760502
              ],
              [
                77.90917779224401,
                30.342485183232316
              ],
              [
                77.90908796071557,
                30.342485183232316
              ],
              [
                77.90908796071557,
                30.342575014760502
              ],
              [
                77.90917779224401,
                30.342575014760502
              ]
            ]
          ],
          [
            [
              [
                78.04742851451796,
                30.343832656155115
              ],
              [
                78.04724885146108,
                30.343832656155115
              ],
              [
                78.04724885146108,
                30.343922487683304
              ],
              [
                78.04742851451796,
                30.343922487683304
              ],
              [
                78.04742851451796,
                30.343832656155115
              ]
            ]
          ],
          [
            [
              [
                78.04742851451796,
                30.34401231921149
              ],
              [
                78.04760817757486,
                30.34401231921149
              ],
              [
                78.04760817757486,
                30.343922487683304
              ],
              [
                78.04742851451796,
                30.343922487683304
              ],
              [
                78.04742851451796,
                30.34401231921149
              ]
            ]
          ],
          [
            [
              [
                78.05766930876048,
                30.304037289168402
              ],
              [
                78.05775914028892,
                30.304037289168402
              ],
              [
                78.05775914028892,
                30.303947457640216
              ],
              [
                78.05766930876048,
                30.303947457640216
              ],
              [
                78.05766930876048,
                30.304037289168402
              ]
            ]
          ],
          [
            [
              [
                78.0527285746961,
                30.312391621289766
              ],
              [
                78.0527285746961,
                30.31257128434614
              ],
              [
                78.052908237753,
                30.31257128434614
              ],
              [
                78.052908237753,
                30.312481452817952
              ],
              [
                78.05281840622456,
                30.312481452817952
              ],
              [
                78.05281840622456,
                30.312391621289766
              ],
              [
                78.0527285746961,
                30.312391621289766
              ]
            ]
          ],
          [
            [
              [
                78.06189139059731,
                30.323171404672173
              ],
              [
                78.06189139059731,
                30.323081573143984
              ],
              [
                78.06180155906887,
                30.323081573143984
              ],
              [
                78.06180155906887,
                30.323171404672173
              ],
              [
                78.06189139059731,
                30.323171404672173
              ]
            ]
          ],
          [
            [
              [
                78.04832682980239,
                30.343473330042368
              ],
              [
                78.04841666133085,
                30.343473330042368
              ],
              [
                78.04841666133085,
                30.343383498514182
              ],
              [
                78.04832682980239,
                30.343383498514182
              ],
              [
                78.04832682980239,
                30.343473330042368
              ]
            ]
          ],
          [
            [
              [
                78.04787767216018,
                30.343563161570557
              ],
              [
                78.04787767216018,
                30.343473330042368
              ],
              [
                78.04778784063174,
                30.343473330042368
              ],
              [
                78.04778784063174,
                30.343563161570557
              ],
              [
                78.04787767216018,
                30.343563161570557
              ]
            ]
          ],
          [
            [
              [
                78.04760817757486,
                30.343832656155115
              ],
              [
                78.04760817757486,
                30.34374282462693
              ],
              [
                78.04751834604642,
                30.34374282462693
              ],
              [
                78.04751834604642,
                30.343832656155115
              ],
              [
                78.04760817757486,
                30.343832656155115
              ]
            ]
          ],
          [
            [
              [
                78.08372045200899,
                30.354522608009336
              ],
              [
                78.08372045200899,
                30.354432776481147
              ],
              [
                78.08363062048055,
                30.354432776481147
              ],
              [
                78.08363062048055,
                30.354522608009336
              ],
              [
                78.08372045200899,
                30.354522608009336
              ]
            ]
          ],
          [
            [
              [
                78.08390011506587,
                30.354522608009336
              ],
              [
                78.08390011506587,
                30.354432776481147
              ],
              [
                78.08381028353743,
                30.354432776481147
              ],
              [
                78.08381028353743,
                30.354522608009336
              ],
              [
                78.08390011506587,
                30.354522608009336
              ]
            ]
          ],
          [
            [
              [
                78.08372045200899,
                30.354522608009336
              ],
              [
                78.08372045200899,
                30.354612439537522
              ],
              [
                78.08381028353743,
                30.354612439537522
              ],
              [
                78.08381028353743,
                30.354522608009336
              ],
              [
                78.08372045200899,
                30.354522608009336
              ]
            ]
          ],
          [
            [
              [
                78.08578657716318,
                30.358026037608617
              ],
              [
                78.08578657716318,
                30.35793620608043
              ],
              [
                78.0856069141063,
                30.35793620608043
              ],
              [
                78.0856069141063,
                30.358026037608617
              ],
              [
                78.08578657716318,
                30.358026037608617
              ]
            ]
          ],
          [
            [
              [
                78.0856069141063,
                30.35820570066499
              ],
              [
                78.0856069141063,
                30.358115869136803
              ],
              [
                78.08551708257785,
                30.358115869136803
              ],
              [
                78.08551708257785,
                30.35820570066499
              ],
              [
                78.0856069141063,
                30.35820570066499
              ]
            ]
          ],
          [
            [
              [
                78.08686455550449,
                30.364404076109874
              ],
              [
                78.08686455550449,
                30.36431424458169
              ],
              [
                78.08677472397605,
                30.36431424458169
              ],
              [
                78.08677472397605,
                30.364404076109874
              ],
              [
                78.08686455550449,
                30.364404076109874
              ]
            ]
          ],
          [
            [
              [
                78.07572544597755,
                30.398540056820824
              ],
              [
                78.07572544597755,
                30.39845022529264
              ],
              [
                78.0756356144491,
                30.39845022529264
              ],
              [
                78.0756356144491,
                30.398540056820824
              ],
              [
                78.07572544597755,
                30.398540056820824
              ]
            ]
          ]
        ]
      }
    },
    {
      "type": "Feature",
      "properties": {
        "id": "sbvi-zone-4",
        "name": "High Risk Zone",
        "risk": "high",
        "risk_label": "High",
        "sbvi_mean": 0.728,
        "sbvi_scaled": 72.8,
        "pixel_count": 18,
        "area_ha": 0.2,
        "color": "#F08040",
        "data_source": "Sentinel-2 SBVI Model \u00b7 Chandreyee Dey Roy",
        "formula": "(NDVI_stress\u00d70.35) + (NDMI_stress\u00d70.35) + (NBR_stress\u00d70.20) + (SAR_stress\u00d70.10)"
      },
      "geometry": {
        "type": "MultiPolygon",
        "coordinates": [
          [
            [
              [
                78.00565685379192,
                30.297659250667145
              ],
              [
                78.00565685379192,
                30.29774908219533
              ],
              [
                78.00574668532036,
                30.29774908219533
              ],
              [
                78.00574668532036,
                30.297659250667145
              ],
              [
                78.00565685379192,
                30.297659250667145
              ]
            ]
          ],
          [
            [
              [
                78.01068741938474,
                30.302330490132853
              ],
              [
                78.01077725091318,
                30.302330490132853
              ],
              [
                78.01077725091318,
                30.302240658604667
              ],
              [
                78.01068741938474,
                30.302240658604667
              ],
              [
                78.01068741938474,
                30.302330490132853
              ]
            ]
          ],
          [
            [
              [
                78.01068741938474,
                30.302330490132853
              ],
              [
                78.0105975878563,
                30.302330490132853
              ],
              [
                78.0105975878563,
                30.302420321661042
              ],
              [
                78.01068741938474,
                30.302420321661042
              ],
              [
                78.01068741938474,
                30.302330490132853
              ]
            ]
          ],
          [
            [
              [
                78.01383152288024,
                30.305833919732137
              ],
              [
                78.01392135440868,
                30.305833919732137
              ],
              [
                78.01392135440868,
                30.305744088203948
              ],
              [
                78.01383152288024,
                30.305744088203948
              ],
              [
                78.01383152288024,
                30.305833919732137
              ]
            ]
          ],
          [
            [
              [
                78.0306300186991,
                30.31140347447971
              ],
              [
                78.03071985022754,
                30.31140347447971
              ],
              [
                78.03071985022754,
                30.311313642951525
              ],
              [
                78.0306300186991,
                30.311313642951525
              ],
              [
                78.0306300186991,
                30.31140347447971
              ]
            ]
          ],
          [
            [
              [
                78.01616714261976,
                30.341407204894075
              ],
              [
                78.0162569741482,
                30.341407204894075
              ],
              [
                78.0162569741482,
                30.34131737336589
              ],
              [
                78.01616714261976,
                30.34131737336589
              ],
              [
                78.01616714261976,
                30.341407204894075
              ]
            ]
          ],
          [
            [
              [
                78.04751834604642,
                30.34374282462693
              ],
              [
                78.04742851451796,
                30.34374282462693
              ],
              [
                78.04742851451796,
                30.343922487683304
              ],
              [
                78.0476980091033,
                30.343922487683304
              ],
              [
                78.0476980091033,
                30.343832656155115
              ],
              [
                78.04751834604642,
                30.343832656155115
              ],
              [
                78.04751834604642,
                30.34374282462693
              ]
            ]
          ],
          [
            [
              [
                77.887887720003,
                30.390095893171274
              ],
              [
                77.88797755153143,
                30.390095893171274
              ],
              [
                77.88797755153143,
                30.39000606164309
              ],
              [
                77.887887720003,
                30.39000606164309
              ],
              [
                77.887887720003,
                30.390095893171274
              ]
            ]
          ],
          [
            [
              [
                78.05766930876048,
                30.304127120696588
              ],
              [
                78.05775914028892,
                30.304127120696588
              ],
              [
                78.05775914028892,
                30.304037289168402
              ],
              [
                78.05766930876048,
                30.304037289168402
              ],
              [
                78.05766930876048,
                30.304127120696588
              ]
            ]
          ],
          [
            [
              [
                78.05281840622456,
                30.312481452817952
              ],
              [
                78.052908237753,
                30.312481452817952
              ],
              [
                78.052908237753,
                30.312391621289766
              ],
              [
                78.05281840622456,
                30.312391621289766
              ],
              [
                78.05281840622456,
                30.312481452817952
              ]
            ]
          ],
          [
            [
              [
                78.04787767216018,
                30.343563161570557
              ],
              [
                78.04796750368862,
                30.343563161570557
              ],
              [
                78.04796750368862,
                30.343473330042368
              ],
              [
                78.04787767216018,
                30.343473330042368
              ],
              [
                78.04787767216018,
                30.343563161570557
              ]
            ]
          ],
          [
            [
              [
                78.04832682980239,
                30.343563161570557
              ],
              [
                78.04841666133085,
                30.343563161570557
              ],
              [
                78.04841666133085,
                30.343473330042368
              ],
              [
                78.04832682980239,
                30.343473330042368
              ],
              [
                78.04832682980239,
                30.343563161570557
              ]
            ]
          ],
          [
            [
              [
                78.04778784063174,
                30.343652993098743
              ],
              [
                78.04787767216018,
                30.343652993098743
              ],
              [
                78.04787767216018,
                30.343563161570557
              ],
              [
                78.04778784063174,
                30.343563161570557
              ],
              [
                78.04778784063174,
                30.343652993098743
              ]
            ]
          ],
          [
            [
              [
                78.04805733521707,
                30.343652993098743
              ],
              [
                78.04814716674551,
                30.343652993098743
              ],
              [
                78.04814716674551,
                30.343563161570557
              ],
              [
                78.04805733521707,
                30.343563161570557
              ],
              [
                78.04805733521707,
                30.343652993098743
              ]
            ]
          ],
          [
            [
              [
                78.08641539786228,
                30.365032896807183
              ],
              [
                78.08650522939072,
                30.365032896807183
              ],
              [
                78.08650522939072,
                30.364943065278993
              ],
              [
                78.08641539786228,
                30.364943065278993
              ],
              [
                78.08641539786228,
                30.365032896807183
              ]
            ]
          ]
        ]
      }
    },
    {
      "type": "Feature",
      "properties": {
        "id": "sbvi-zone-5",
        "name": "Very High Risk Zone",
        "risk": "high",
        "risk_label": "Very High",
        "sbvi_mean": 0.886,
        "sbvi_scaled": 88.6,
        "pixel_count": 24,
        "area_ha": 0.2,
        "color": "#F06060",
        "data_source": "Sentinel-2 SBVI Model \u00b7 Chandreyee Dey Roy",
        "formula": "(NDVI_stress\u00d70.35) + (NDMI_stress\u00d70.35) + (NBR_stress\u00d70.20) + (SAR_stress\u00d70.10)"
      },
      "geometry": {
        "type": "MultiPolygon",
        "coordinates": [
          [
            [
              [
                78.04167929669761,
                30.32056629035476
              ],
              [
                78.04176912822605,
                30.32056629035476
              ],
              [
                78.04176912822605,
                30.32047645882657
              ],
              [
                78.04167929669761,
                30.32047645882657
              ],
              [
                78.04167929669761,
                30.32056629035476
              ]
            ]
          ],
          [
            [
              [
                78.0091602834012,
                30.329010454004308
              ],
              [
                78.00925011492964,
                30.329010454004308
              ],
              [
                78.00925011492964,
                30.328920622476122
              ],
              [
                78.0091602834012,
                30.328920622476122
              ],
              [
                78.0091602834012,
                30.329010454004308
              ]
            ]
          ],
          [
            [
              [
                77.98535492836378,
                30.33143590526535
              ],
              [
                77.98544475989222,
                30.33143590526535
              ],
              [
                77.98544475989222,
                30.331346073737162
              ],
              [
                77.98535492836378,
                30.331346073737162
              ],
              [
                77.98535492836378,
                30.33143590526535
              ]
            ]
          ],
          [
            [
              [
                78.01544849039222,
                30.333951188054577
              ],
              [
                78.01544849039222,
                30.33386135652639
              ],
              [
                78.01526882733533,
                30.33386135652639
              ],
              [
                78.01526882733533,
                30.333951188054577
              ],
              [
                78.01544849039222,
                30.333951188054577
              ]
            ]
          ],
          [
            [
              [
                78.03018086105689,
                30.338352932935727
              ],
              [
                78.03018086105689,
                30.33826310140754
              ],
              [
                78.03009102952845,
                30.33826310140754
              ],
              [
                78.03009102952845,
                30.338352932935727
              ],
              [
                78.03018086105689,
                30.338352932935727
              ]
            ]
          ],
          [
            [
              [
                78.03018086105689,
                30.338442764463913
              ],
              [
                78.03027069258533,
                30.338442764463913
              ],
              [
                78.03027069258533,
                30.338352932935727
              ],
              [
                78.03018086105689,
                30.338352932935727
              ],
              [
                78.03018086105689,
                30.338442764463913
              ]
            ]
          ],
          [
            [
              [
                78.03018086105689,
                30.3385325959921
              ],
              [
                78.03018086105689,
                30.338442764463913
              ],
              [
                78.03009102952845,
                30.338442764463913
              ],
              [
                78.03009102952845,
                30.3385325959921
              ],
              [
                78.03018086105689,
                30.3385325959921
              ]
            ]
          ],
          [
            [
              [
                77.90917779224401,
                30.342485183232316
              ],
              [
                77.90917779224401,
                30.34239535170413
              ],
              [
                77.90908796071557,
                30.34239535170413
              ],
              [
                77.90908796071557,
                30.342485183232316
              ],
              [
                77.90917779224401,
                30.342485183232316
              ]
            ]
          ],
          [
            [
              [
                77.89112165502695,
                30.349851368543625
              ],
              [
                77.89121148655539,
                30.349851368543625
              ],
              [
                77.89121148655539,
                30.34976153701544
              ],
              [
                77.89112165502695,
                30.34976153701544
              ],
              [
                77.89112165502695,
                30.349851368543625
              ]
            ]
          ],
          [
            [
              [
                77.88752839388923,
                30.3899162301149
              ],
              [
                77.88752839388923,
                30.389826398586713
              ],
              [
                77.88743856236078,
                30.389826398586713
              ],
              [
                77.88743856236078,
                30.3899162301149
              ],
              [
                77.88752839388923,
                30.3899162301149
              ]
            ]
          ],
          [
            [
              [
                77.96693946503294,
                30.41587754176086
              ],
              [
                77.96693946503294,
                30.415787710232674
              ],
              [
                77.9668496335045,
                30.415787710232674
              ],
              [
                77.9668496335045,
                30.41587754176086
              ],
              [
                77.96693946503294,
                30.41587754176086
              ]
            ]
          ],
          [
            [
              [
                78.04688952534731,
                30.287598119510232
              ],
              [
                78.04697935687575,
                30.287598119510232
              ],
              [
                78.04697935687575,
                30.287508287982046
              ],
              [
                78.04688952534731,
                30.287508287982046
              ],
              [
                78.04688952534731,
                30.287598119510232
              ]
            ]
          ],
          [
            [
              [
                78.04239794892516,
                30.297030429969837
              ],
              [
                78.0424877804536,
                30.297030429969837
              ],
              [
                78.0424877804536,
                30.29694059844165
              ],
              [
                78.04239794892516,
                30.29694059844165
              ],
              [
                78.04239794892516,
                30.297030429969837
              ]
            ]
          ],
          [
            [
              [
                78.05775914028892,
                30.304127120696588
              ],
              [
                78.05784897181736,
                30.304127120696588
              ],
              [
                78.05784897181736,
                30.304037289168402
              ],
              [
                78.05775914028892,
                30.304037289168402
              ],
              [
                78.05775914028892,
                30.304127120696588
              ]
            ]
          ],
          [
            [
              [
                78.05308790080989,
                30.312391621289766
              ],
              [
                78.05308790080989,
                30.31230178976158
              ],
              [
                78.05299806928144,
                30.31230178976158
              ],
              [
                78.05299806928144,
                30.312391621289766
              ],
              [
                78.05308790080989,
                30.312391621289766
              ]
            ]
          ],
          [
            [
              [
                78.04194879128293,
                30.32074595341113
              ],
              [
                78.04194879128293,
                30.320656121882944
              ],
              [
                78.04185895975449,
                30.320656121882944
              ],
              [
                78.04185895975449,
                30.32074595341113
              ],
              [
                78.04194879128293,
                30.32074595341113
              ]
            ]
          ],
          [
            [
              [
                78.04167929669761,
                30.320835784939316
              ],
              [
                78.04176912822605,
                30.320835784939316
              ],
              [
                78.04176912822605,
                30.32074595341113
              ],
              [
                78.04167929669761,
                30.32074595341113
              ],
              [
                78.04167929669761,
                30.320835784939316
              ]
            ]
          ],
          [
            [
              [
                78.06171172754043,
                30.32326123620036
              ],
              [
                78.06171172754043,
                30.323081573143984
              ],
              [
                78.06162189601199,
                30.323081573143984
              ],
              [
                78.06162189601199,
                30.32326123620036
              ],
              [
                78.06171172754043,
                30.32326123620036
              ]
            ]
          ],
          [
            [
              [
                78.04446407407934,
                30.326854497327826
              ],
              [
                78.04446407407934,
                30.32676466579964
              ],
              [
                78.0443742425509,
                30.32676466579964
              ],
              [
                78.0443742425509,
                30.326854497327826
              ],
              [
                78.04446407407934,
                30.326854497327826
              ]
            ]
          ],
          [
            [
              [
                78.04814716674551,
                30.343652993098743
              ],
              [
                78.04823699827395,
                30.343652993098743
              ],
              [
                78.04823699827395,
                30.343563161570557
              ],
              [
                78.04814716674551,
                30.343563161570557
              ],
              [
                78.04814716674551,
                30.343652993098743
              ]
            ]
          ],
          [
            [
              [
                78.04733868298952,
                30.34401231921149
              ],
              [
                78.04733868298952,
                30.343922487683304
              ],
              [
                78.04724885146108,
                30.343922487683304
              ],
              [
                78.04724885146108,
                30.34401231921149
              ],
              [
                78.04733868298952,
                30.34401231921149
              ]
            ]
          ],
          [
            [
              [
                78.0476980091033,
                30.34401231921149
              ],
              [
                78.0476980091033,
                30.343922487683304
              ],
              [
                78.04760817757486,
                30.343922487683304
              ],
              [
                78.04760817757486,
                30.34401231921149
              ],
              [
                78.0476980091033,
                30.34401231921149
              ]
            ]
          ]
        ]
      }
    }
  ]
}